{"type": "FeatureCollection", "features": [ {"type": "Feature", "properties": {"norad_id": 35023, "name": "COSMOS 2251 DEB", "group": "cosmos-2251-debris", "lat": -68.67520754001475, "lon": 49.348251987610396, "alt_km": 564.2858432940075, "timestamp": "2025-12-27T19:21:59.140889+00:00", "meta": {"OBJECT_NAME": "COSMOS 2251 DEB", "OBJECT_ID": "1993-036AGL", "EPOCH": "2025-12-26T15:15:20.415744", "MEAN_MOTION": 14.95526509, "ECCENTRICITY": 0.0033423, "INCLINATION": 74.0371, "RA_OF_ASC_NODE": 184.5532, "ARG_OF_PERICENTER": 260.5788, "MEAN_ANOMALY": 171.6189, "EPHEMERIS_TYPE": 0, "CLASSIFICATION_TYPE": "U", "NORAD_CAT_ID": 35023, "ELEMENT_SET_NO": 999, "REV_AT_EPOCH": 88487, "BSTAR": 0.0016022, "MEAN_MOTION_DOT": 0.00017965, "MEAN_MOTION_DDOT": 0}, "tle": {"line1": "1 35023U 93036AGL 25360.63565296  .00017965  00000+0  16022-2 0  9992", "line2": "2 35023  74.0371 184.5532 0033423 260.5788 171.6189 14.95526509884870"}}, "geometry": {"type": "Point", "coordinates": [49.348251987610396, -68.67520754001475]}}, {"type": "Feature", "properties": {"norad_id": 35025, "name": "COSMOS 2251 DEB", "group": "cosmos-2251-debris", "lat": -6.082748540679056, "lon": -144.8323194352336, "alt_km": 682.3695656453474, "timestamp": "2025-12-27T19:21:59.140898+00:00", "meta": {"OBJECT_NAME": "COSMOS 2251 DEB", "OBJECT_ID": "1993-036AGN", "EPOCH": "2025-12-25T12:43:05.392128", "MEAN_MOTION": 14.7277334, "ECCENTRICITY": 0.0085734, "INCLINATION": 73.9378, "RA_OF_ASC_NODE": 37.8677, "ARG_OF_PERICENTER": 308.0127, "MEAN_ANOMALY": 51.3326, "EPHEMERIS_TYPE": 0, "CLASSIFICATION_TYPE": "U", "NORAD_CAT_ID": 35025, "ELEMENT_SET_NO": 999, "REV_AT_EPOCH": 88831, "BSTAR": 0.00045426, "MEAN_MOTION_DOT": 3.041e-05, "MEAN_MOTION_DDOT": 0}, "tle": {"line1": "1 35025U 93036AGN 25359.52992352  .00003041  00000+0  45426-3 0  9998", "line2": "2 35025  73.9378  37.8677 0085734 308.0127  51.3326 14.72773340888316"}}, "geometry": {"type": "Point", "coordinates": [-144.8323194352336, -6.082748540679056]}}, {"type": "Feature", "properties": {"norad_id": 35026, "name": "COSMOS 2251 DEB", "group": "cosmos-2251-debris", "lat": 70.20738457557287, "lon": 57.721803025945974, "alt_km": 678.9425148248938, "timestamp": "2025-12-27T19:21:59.140907+00:00", "meta": {"OBJECT_NAME": "COSMOS 2251 DEB", "OBJECT_ID": "1993-036AGP", "EPOCH": "2025-12-27T02:27:21.059712", "MEAN_MOTION": 14.53633351, "ECCENTRICITY": 0.00826984, "INCLINATION": 74.0476, "RA_OF_ASC_NODE": 291.6889, "ARG_OF_PERICENTER": 41.1171, "MEAN_ANOMALY": 334.1243, "EPHEMERIS_TYPE": 0, "CLASSIFICATION_TYPE": "U", "NORAD_CAT_ID": 35026, "ELEMENT_SET_NO": 999, "REV_AT_EPOCH": 88352, "BSTAR": 0.00010031799, "MEAN_MOTION_DOT": 4.09e-06, "MEAN_MOTION_DDOT": 0}, "tle": {"line1": "1 35026U 93036AGP 25361.10232708  .00000409  00000+0  10032-3 0  9998", "line2": "2 35026  74.0476 291.6889 0082698  41.1171 334.1243 14.53633351883527"}}, "geometry": {"type": "Point", "coordinates": [57.721803025945974, 70.20738457557287]}}, {"type": "Feature", "properties": {"norad_id": 35028, "name": "COSMOS 2251 DEB", "group": "cosmos-2251-debris", "lat": 12.801028319361857, "lon": -113.88154966139786, "alt_km": 646.210395142486, "timestamp": "2025-12-27T19:21:59.140916+00:00", "meta": {"OBJECT_NAME": "COSMOS 2251 DEB", "OBJECT_ID": "1993-036AGR", "EPOCH": "2025-12-26T09:14:11.078016", "MEAN_MOTION": 14.56582839, "ECCENTRICITY": 0.008309, "INCLINATION": 74.0377, "RA_OF_ASC_NODE": 245.0874, "ARG_OF_PERICENTER": 15.167, "MEAN_ANOMALY": 104.3209, "EPHEMERIS_TYPE": 0, "CLASSIFICATION_TYPE": "U", "NORAD_CAT_ID": 35028, "ELEMENT_SET_NO": 999, "REV_AT_EPOCH": 88484, "BSTAR": 9.0149e-05, "MEAN_MOTION_DOT": 3.89e-06, "MEAN_MOTION_DDOT": 0}, "tle": {"line1": "1 35028U 93036AGR 25360.38485044  .00000389  00000+0  90149-4 0  9997", "line2": "2 35028  74.0377 245.0874 0083090  15.1670 104.3209 14.56582839884840"}}, "geometry": {"type": "Point", "coordinates": [-113.88154966139786, 12.801028319361857]}}, {"type": "Feature", "properties": {"norad_id": 35031, "name": "COSMOS 2251 DEB", "group": "cosmos-2251-debris", "lat": 13.862178492358524, "lon": -124.44454000368856, "alt_km": 756.2504207673801, "timestamp": "2025-12-27T19:21:59.140925+00:00", "meta": {"OBJECT_NAME": "COSMOS 2251 DEB", "OBJECT_ID": "1993-036AGU", "EPOCH": "2025-12-26T08:14:40.104672", "MEAN_MOTION": 14.38307542, "ECCENTRICITY": 0.0019397, "INCLINATION": 74.0373, "RA_OF_ASC_NODE": 234.2004, "ARG_OF_PERICENTER": 325.2705, "MEAN_ANOMALY": 34.7182, "EPHEMERIS_TYPE": 0, "CLASSIFICATION_TYPE": "U", "NORAD_CAT_ID": 35031, "ELEMENT_SET_NO": 999, "REV_AT_EPOCH": 65479, "BSTAR": 0.0001513, "MEAN_MOTION_DOT": 4.35e-06, "MEAN_MOTION_DDOT": 0}, "tle": {"line1": "1 35031U 93036AGU 25360.34351973  .00000435  00000+0  15130-3 0  9998", "line2": "2 35031  74.0373 234.2004 0019397 325.2705  34.7182 14.38307542654799"}}, "geometry": {"type": "Point", "coordinates": [-124.44454000368856, 13.862178492358524]}}, {"type": "Feature", "properties": {"norad_id": 35032, "name": "COSMOS 2251 DEB", "group": "cosmos-2251-debris", "lat": -73.82271842701985, "lon": -108.87199492476813, "alt_km": 698.6046298326828, "timestamp": "2025-12-27T19:21:59.140935+00:00", "meta": {"OBJECT_NAME": "COSMOS 2251 DEB", "OBJECT_ID": "1993-036AGV", "EPOCH": "2025-12-27T08:35:05.273088", "MEAN_MOTION": 14.58834768, "ECCENTRICITY": 0.0067324, "INCLINATION": 73.8521, "RA_OF_ASC_NODE": 339.1198, "ARG_OF_PERICENTER": 187.727, "MEAN_ANOMALY": 243.9685, "EPHEMERIS_TYPE": 0, "CLASSIFICATION_TYPE": "U", "NORAD_CAT_ID": 35032, "ELEMENT_SET_NO": 999, "REV_AT_EPOCH": 87887, "BSTAR": 0.00086512, "MEAN_MOTION_DOT": 4.147e-05, "MEAN_MOTION_DDOT": 0}, "tle": {"line1": "1 35032U 93036AGV 25361.35769992  .00004147  00000+0  86512-3 0  9991", "line2": "2 35032  73.8521 339.1198 0067324 187.7270 243.9685 14.58834768878878"}}, "geometry": {"type": "Point", "coordinates": [-108.87199492476813, -73.82271842701985]}}, {"type": "Feature", "properties": {"norad_id": 35033, "name": "COSMOS 2251 DEB", "group": "cosmos-2251-debris", "lat": -46.99352349743432, "lon": -13.885949826663836, "alt_km": 719.3971947410846, "timestamp": "2025-12-27T19:21:59.140944+00:00", "meta": {"OBJECT_NAME": "COSMOS 2251 DEB", "OBJECT_ID": "1993-036AGW", "EPOCH": "2025-12-19T05:07:27.625152", "MEAN_MOTION": 14.50959586, "ECCENTRICITY": 0.001448, "INCLINATION": 74.0251, "RA_OF_ASC_NODE": 164.3945, "ARG_OF_PERICENTER": 270.8601, "MEAN_ANOMALY": 89.0901, "EPHEMERIS_TYPE": 0, "CLASSIFICATION_TYPE": "U", "NORAD_CAT_ID": 35033, "ELEMENT_SET_NO": 999, "REV_AT_EPOCH": 66021, "BSTAR": 0.00048139, "MEAN_MOTION_DOT": 1.877e-05, "MEAN_MOTION_DDOT": 0}, "tle": {"line1": "1 35033U 93036AGW 25353.21351418  .00001877  00000+0  48139-3 0  9998", "line2": "2 35033  74.0251 164.3945 0014480 270.8601  89.0901 14.50959586660212"}}, "geometry": {"type": "Point", "coordinates": [-13.885949826663836, -46.99352349743432]}}, {"type": "Feature", "properties": {"norad_id": 35038, "name": "COSMOS 2251 DEB", "group": "cosmos-2251-debris", "lat": -54.00762138857659, "lon": -141.3786982212204, "alt_km": 852.3439037679791, "timestamp": "2025-12-27T19:21:59.140953+00:00", "meta": {"OBJECT_NAME": "COSMOS 2251 DEB", "OBJECT_ID": "1993-036AHB", "EPOCH": "2025-12-16T02:43:57.942048", "MEAN_MOTION": 14.25166694, "ECCENTRICITY": 0.01140711, "INCLINATION": 74.1077, "RA_OF_ASC_NODE": 36.5236, "ARG_OF_PERICENTER": 19.3791, "MEAN_ANOMALY": 9.3469, "EPHEMERIS_TYPE": 0, "CLASSIFICATION_TYPE": "U", "NORAD_CAT_ID": 35038, "ELEMENT_SET_NO": 999, "REV_AT_EPOCH": 85617, "BSTAR": 0.00096319549, "MEAN_MOTION_DOT": 2.397e-05, "MEAN_MOTION_DDOT": 0}, "tle": {"line1": "1 35038U 93036AHB 25350.11386507  .00002397  00000+0  96320-3 0  9999", "line2": "2 35038  74.1077  36.5236 0114071  19.3791   9.3469 14.25166694856178"}}, "geometry": {"type": "Point", "coordinates": [-141.3786982212204, -54.00762138857659]}}, {"type": "Feature", "properties": {"norad_id": 35043, "name": "COSMOS 2251 DEB", "group": "cosmos-2251-debris", "lat": 22.832027237259673, "lon": 22.823898843044958, "alt_km": 698.908153297717, "timestamp": "2025-12-27T19:21:59.140961+00:00", "meta": {"OBJECT_NAME": "COSMOS 2251 DEB", "OBJECT_ID": "1993-036AHG", "EPOCH": "2025-12-26T18:53:03.575616", "MEAN_MOTION": 14.77645294, "ECCENTRICITY": 0.00948894, "INCLINATION": 73.9519, "RA_OF_ASC_NODE": 17.8748, "ARG_OF_PERICENTER": 224.707, "MEAN_ANOMALY": 134.6429, "EPHEMERIS_TYPE": 0, "CLASSIFICATION_TYPE": "U", "NORAD_CAT_ID": 35043, "ELEMENT_SET_NO": 999, "REV_AT_EPOCH": 67626, "BSTAR": 0.0032488799, "MEAN_MOTION_DOT": 0.00025114, "MEAN_MOTION_DDOT": 0}, "tle": {"line1": "1 35043U 93036AHG 25360.78684694  .00025114  00000+0  32489-2 0  9994", "line2": "2 35043  73.9519  17.8748 0094889 224.7070 134.6429 14.77645294676261"}}, "geometry": {"type": "Point", "coordinates": [22.823898843044958, 22.832027237259673]}}, {"type": "Feature", "properties": {"norad_id": 35045, "name": "COSMOS 2251 DEB", "group": "cosmos-2251-debris", "lat": 3.987007520884765, "lon": 27.261493576473384, "alt_km": 911.1119251890423, "timestamp": "2025-12-27T19:21:59.140970+00:00", "meta": {"OBJECT_NAME": "COSMOS 2251 DEB", "OBJECT_ID": "1993-036AHJ", "EPOCH": "2025-12-24T19:20:26.125152", "MEAN_MOTION": 14.0041252, "ECCENTRICITY": 0.01839955, "INCLINATION": 73.7191, "RA_OF_ASC_NODE": 31.3925, "ARG_OF_PERICENTER": 271.7742, "MEAN_ANOMALY": 86.2325, "EPHEMERIS_TYPE": 0, "CLASSIFICATION_TYPE": "U", "NORAD_CAT_ID": 35045, "ELEMENT_SET_NO": 999, "REV_AT_EPOCH": 84812, "BSTAR": 0.0006276669, "MEAN_MOTION_DOT": 1.049e-05, "MEAN_MOTION_DDOT": 0}, "tle": {"line1": "1 35045U 93036AHJ 25358.80585793  .00001049  00000+0  62767-3 0  9990", "line2": "2 35045  73.7191  31.3925 0183995 271.7742  86.2325 14.00412520848123"}}, "geometry": {"type": "Point", "coordinates": [27.261493576473384, 3.987007520884765]}}]}